{"type": "FeatureCollection", "features": [ {"type": "Feature", "properties": {"norad_id": 30941, "name": "FENGYUN 1C DEB", "group": "fengyun-1c-debris", "lat": 47.221343111187174, "lon": 39.36432222415509, "alt_km": 807.4038252591672, "timestamp": "2025-12-19T06:59:44.188290+00:00", "meta": {"OBJECT_NAME": "FENGYUN 1C DEB", "OBJECT_ID": "1999-025BAF", "EPOCH": "2025-12-16T12:56:12.185952", "MEAN_MOTION": 14.3107633, "ECCENTRICITY": 0.00338881, "INCLINATION": 98.5491, "RA_OF_ASC_NODE": 207.3009, "ARG_OF_PERICENTER": 306.0217, "MEAN_ANOMALY": 53.7827, "EPHEMERIS_TYPE": 0, "CLASSIFICATION_TYPE": "U", "NORAD_CAT_ID": 30941, "ELEMENT_SET_NO": 999, "REV_AT_EPOCH": 96680, "BSTAR": 0.0015073609, "MEAN_MOTION_DOT": 3.955e-05, "MEAN_MOTION_DDOT": 0}, "tle": {"line1": "1 30941U 99025BAF 25350.53902993  .00003955  00000+0  15074-2 0  9997", "line2": "2 30941  98.5491 207.3009 0033888 306.0217  53.7827 14.31076330966804"}}, "geometry": {"type": "Point", "coordinates": [39.36432222415509, 47.221343111187174]}}, {"type": "Feature", "properties": {"norad_id": 30942, "name": "FENGYUN 1C DEB", "group": "fengyun-1c-debris", "lat": 60.64884970158363, "lon": -172.88351454404707, "alt_km": 750.6356467940841, "timestamp": "2025-12-19T06:59:44.188300+00:00", "meta": {"OBJECT_NAME": "FENGYUN 1C DEB", "OBJECT_ID": "1999-025BAG", "EPOCH": "2025-12-16T18:08:59.972352", "MEAN_MOTION": 14.1484202, "ECCENTRICITY": 0.01380243, "INCLINATION": 98.6797, "RA_OF_ASC_NODE": 348.8885, "ARG_OF_PERICENTER": 94.8865, "MEAN_ANOMALY": 76.6147, "EPHEMERIS_TYPE": 0, "CLASSIFICATION_TYPE": "U", "NORAD_CAT_ID": 30942, "ELEMENT_SET_NO": 999, "REV_AT_EPOCH": 96701, "BSTAR": 0.0002068947, "MEAN_MOTION_DOT": 3.96e-06, "MEAN_MOTION_DDOT": 0}, "tle": {"line1": "1 30942U 99025BAG 25350.75624968  .00000396  00000+0  20689-3 0  9990", "line2": "2 30942  98.6797 348.8885 0138024  94.8865  76.6147 14.14842020967018"}}, "geometry": {"type": "Point", "coordinates": [-172.88351454404707, 60.64884970158363]}}, {"type": "Feature", "properties": {"norad_id": 30943, "name": "FENGYUN 1C DEB", "group": "fengyun-1c-debris", "lat": -31.602089311184926, "lon": -178.45886305815517, "alt_km": 919.660620207128, "timestamp": "2025-12-19T06:59:44.188310+00:00", "meta": {"OBJECT_NAME": "FENGYUN 1C DEB", "OBJECT_ID": "1999-025BAH", "EPOCH": "2025-12-18T19:44:02.580576", "MEAN_MOTION": 14.04495482, "ECCENTRICITY": 0.00507156, "INCLINATION": 98.7975, "RA_OF_ASC_NODE": 6.5539, "ARG_OF_PERICENTER": 48.9786, "MEAN_ANOMALY": 311.5749, "EPHEMERIS_TYPE": 0, "CLASSIFICATION_TYPE": "U", "NORAD_CAT_ID": 30943, "ELEMENT_SET_NO": 999, "REV_AT_EPOCH": 95827, "BSTAR": 0.00035363843, "MEAN_MOTION_DOT": 5.28e-06, "MEAN_MOTION_DDOT": 0}, "tle": {"line1": "1 30943U 99025BAH 25352.82225209  .00000528  00000+0  35364-3 0  9999", "line2": "2 30943  98.7975   6.5539 0050715  48.9786 311.5749 14.04495482958276"}}, "geometry": {"type": "Point", "coordinates": [-178.45886305815517, -31.602089311184926]}}, {"type": "Feature", "properties": {"norad_id": 30944, "name": "FENGYUN 1C DEB", "group": "fengyun-1c-debris", "lat": 78.8255145556465, "lon": -2.716944040830133, "alt_km": 604.3669787549279, "timestamp": "2025-12-19T06:59:44.188321+00:00", "meta": {"OBJECT_NAME": "FENGYUN 1C DEB", "OBJECT_ID": "1999-025BAJ", "EPOCH": "2025-12-18T02:39:13.502016", "MEAN_MOTION": 14.5245153, "ECCENTRICITY": 0.01493413, "INCLINATION": 98.8497, "RA_OF_ASC_NODE": 48.1008, "ARG_OF_PERICENTER": 84.5252, "MEAN_ANOMALY": 307.373, "EPHEMERIS_TYPE": 0, "CLASSIFICATION_TYPE": "U", "NORAD_CAT_ID": 30944, "ELEMENT_SET_NO": 999, "REV_AT_EPOCH": 99154, "BSTAR": 0.00011571499, "MEAN_MOTION_DOT": 4.89e-06, "MEAN_MOTION_DDOT": 0}, "tle": {"line1": "1 30944U 99025BAJ 25352.11057294  .00000489  00000+0  11571-3 0  9999", "line2": "2 30944  98.8497  48.1008 0149341  84.5252 307.3730 14.52451530991547"}}, "geometry": {"type": "Point", "coordinates": [-2.716944040830133, 78.8255145556465]}}, {"type": "Feature", "properties": {"norad_id": 30945, "name": "FENGYUN 1C DEB", "group": "fengyun-1c-debris", "lat": 19.47495920373247, "lon": -0.8887646868560186, "alt_km": 770.6846913346662, "timestamp": "2025-12-19T06:59:44.188331+00:00", "meta": {"OBJECT_NAME": "FENGYUN 1C DEB", "OBJECT_ID": "1999-025BAK", "EPOCH": "2025-12-16T06:45:55.175904", "MEAN_MOTION": 14.29744942, "ECCENTRICITY": 0.00305457, "INCLINATION": 99.3902, "RA_OF_ASC_NODE": 359.2236, "ARG_OF_PERICENTER": 28.5823, "MEAN_ANOMALY": 349.1653, "EPHEMERIS_TYPE": 0, "CLASSIFICATION_TYPE": "U", "NORAD_CAT_ID": 30945, "ELEMENT_SET_NO": 999, "REV_AT_EPOCH": 96488, "BSTAR": 0.0012467125, "MEAN_MOTION_DOT": 3.167e-05, "MEAN_MOTION_DDOT": 0}, "tle": {"line1": "1 30945U 99025BAK 25350.28188861  .00003167  00000+0  12467-2 0  9991", "line2": "2 30945  99.3902 359.2236 0030545  28.5823 349.1653 14.29744942964882"}}, "geometry": {"type": "Point", "coordinates": [-0.8887646868560186, 19.47495920373247]}}, {"type": "Feature", "properties": {"norad_id": 30946, "name": "FENGYUN 1C DEB", "group": "fengyun-1c-debris", "lat": 46.8122440303157, "lon": 99.1703257442504, "alt_km": 764.2451611191827, "timestamp": "2025-12-19T06:59:44.188341+00:00", "meta": {"OBJECT_NAME": "FENGYUN 1C DEB", "OBJECT_ID": "1999-025BAL", "EPOCH": "2025-12-17T06:49:18.317856", "MEAN_MOTION": 14.4817512, "ECCENTRICITY": 0.0089491, "INCLINATION": 99.0386, "RA_OF_ASC_NODE": 106.7882, "ARG_OF_PERICENTER": 179.4192, "MEAN_ANOMALY": 210.4096, "EPHEMERIS_TYPE": 0, "CLASSIFICATION_TYPE": "U", "NORAD_CAT_ID": 30946, "ELEMENT_SET_NO": 999, "REV_AT_EPOCH": 98417, "BSTAR": 0.00061032712, "MEAN_MOTION_DOT": 2.339e-05, "MEAN_MOTION_DDOT": 0}, "tle": {"line1": "1 30946U 99025BAL 25351.28423979  .00002339  00000+0  61033-3 0  9999", "line2": "2 30946  99.0386 106.7882 0089491 179.4192 210.4096 14.48175120984179"}}, "geometry": {"type": "Point", "coordinates": [99.1703257442504, 46.8122440303157]}}, {"type": "Feature", "properties": {"norad_id": 30947, "name": "FENGYUN 1C DEB", "group": "fengyun-1c-debris", "lat": -62.67420681608955, "lon": 45.630276812330585, "alt_km": 706.2083473112125, "timestamp": "2025-12-19T06:59:44.188352+00:00", "meta": {"OBJECT_NAME": "FENGYUN 1C DEB", "OBJECT_ID": "1999-025BAM", "EPOCH": "2025-12-17T22:08:02.807808", "MEAN_MOTION": 14.38050747, "ECCENTRICITY": 0.00957725, "INCLINATION": 98.8089, "RA_OF_ASC_NODE": 241.6907, "ARG_OF_PERICENTER": 232.2262, "MEAN_ANOMALY": 127.0221, "EPHEMERIS_TYPE": 0, "CLASSIFICATION_TYPE": "U", "NORAD_CAT_ID": 30947, "ELEMENT_SET_NO": 999, "REV_AT_EPOCH": 98567, "BSTAR": 0.00022660227, "MEAN_MOTION_DOT": 6.74e-06, "MEAN_MOTION_DDOT": 0}, "tle": {"line1": "1 30947U 99025BAM 25351.92225472  .00000674  00000+0  22660-3 0  9992", "line2": "2 30947  98.8089 241.6907 0095772 232.2262 127.0221 14.38050747985674"}}, "geometry": {"type": "Point", "coordinates": [45.630276812330585, -62.67420681608955]}}, {"type": "Feature", "properties": {"norad_id": 30949, "name": "FENGYUN 1C DEB", "group": "fengyun-1c-debris", "lat": -32.75549176478399, "lon": -6.879814546683388, "alt_km": 783.2853352015154, "timestamp": "2025-12-19T06:59:44.188362+00:00", "meta": {"OBJECT_NAME": "FENGYUN 1C DEB", "OBJECT_ID": "1999-025BAP", "EPOCH": "2025-12-18T22:47:47.016672", "MEAN_MOTION": 14.14054921, "ECCENTRICITY": 0.0116172, "INCLINATION": 98.6977, "RA_OF_ASC_NODE": 347.1358, "ARG_OF_PERICENTER": 291.9751, "MEAN_ANOMALY": 96.0217, "EPHEMERIS_TYPE": 0, "CLASSIFICATION_TYPE": "U", "NORAD_CAT_ID": 30949, "ELEMENT_SET_NO": 999, "REV_AT_EPOCH": 96604, "BSTAR": 0.00020703109, "MEAN_MOTION_DOT": 3.76e-06, "MEAN_MOTION_DDOT": 0}, "tle": {"line1": "1 30949U 99025BAP 25352.94984973  .00000376  00000+0  20703-3 0  9990", "line2": "2 30949  98.6977 347.1358 0116172 291.9751  96.0217 14.14054921966047"}}, "geometry": {"type": "Point", "coordinates": [-6.879814546683388, -32.75549176478399]}}, {"type": "Feature", "properties": {"norad_id": 30954, "name": "FENGYUN 1C DEB", "group": "fengyun-1c-debris", "lat": 28.985184880049886, "lon": 88.3801777584216, "alt_km": 911.0411891611775, "timestamp": "2025-12-19T06:59:44.188372+00:00", "meta": {"OBJECT_NAME": "FENGYUN 1C DEB", "OBJECT_ID": "1999-025BAU", "EPOCH": "2025-12-18T05:42:44.125344", "MEAN_MOTION": 14.14957221, "ECCENTRICITY": 0.01288718, "INCLINATION": 98.7134, "RA_OF_ASC_NODE": 92.2248, "ARG_OF_PERICENTER": 171.7499, "MEAN_ANOMALY": 255.447, "EPHEMERIS_TYPE": 0, "CLASSIFICATION_TYPE": "U", "NORAD_CAT_ID": 30954, "ELEMENT_SET_NO": 999, "REV_AT_EPOCH": 96465, "BSTAR": 0.00095397034, "MEAN_MOTION_DOT": 1.957e-05, "MEAN_MOTION_DDOT": 0}, "tle": {"line1": "1 30954U 99025BAU 25352.23801071  .00001957  00000+0  95397-3 0  9992", "line2": "2 30954  98.7134  92.2248 0128871 171.7499 255.4470 14.14957221964650"}}, "geometry": {"type": "Point", "coordinates": [88.3801777584216, 28.985184880049886]}}, {"type": "Feature", "properties": {"norad_id": 30956, "name": "FENGYUN 1C DEB", "group": "fengyun-1c-debris", "lat": 10.09083369264395, "lon": 25.606731824861303, "alt_km": 821.833605407227, "timestamp": "2025-12-19T06:59:44.188382+00:00", "meta": {"OBJECT_NAME": "FENGYUN 1C DEB", "OBJECT_ID": "1999-025BAW", "EPOCH": "2025-12-17T13:14:34.844352", "MEAN_MOTION": 14.14225224, "ECCENTRICITY": 0.00491187, "INCLINATION": 98.7598, "RA_OF_ASC_NODE": 25.4736, "ARG_OF_PERICENTER": 328.9596, "MEAN_ANOMALY": 188.7624, "EPHEMERIS_TYPE": 0, "CLASSIFICATION_TYPE": "U", "NORAD_CAT_ID": 30956, "ELEMENT_SET_NO": 999, "REV_AT_EPOCH": 96375, "BSTAR": 0.00083080749, "MEAN_MOTION_DOT": 1.56e-05, "MEAN_MOTION_DDOT": 0}, "tle": {"line1": "1 30956U 99025BAW 25351.55179218  .00001560  00000+0  83081-3 0  9996", "line2": "2 30956  98.7598  25.4736 0049118 328.9596 188.7624 14.14225224963756"}}, "geometry": {"type": "Point", "coordinates": [25.606731824861303, 10.09083369264395]}}]}